PharmacyID,Name,Email,Phone,StreetAddress,Address2
1,Jenkins-Roob,nsyvret0@diigo.com,102-297-9353,320 Northview Lane,Room 1020
2,Cremin Inc,lfergusson1@oaic.gov.au,490-294-9685,3 Towne Road,Room 994
3,"Treutel, Goldner and Beahan",fkealy2@simplemachines.org,300-842-0601,1518 American Street,Room 1271
4,"Reynolds, Kris and Kovacek",abowering3@themeforest.net,656-672-5913,404 Sutteridge Alley,Room 481
5,"Adams, Ziemann and Runte",malsina4@nih.gov,857-564-7993,957 Reindahl Park,2nd Floor
6,"Waelchi, Barton and Feeney",nwelfair5@bloomberg.com,847-334-4945,04983 Merrick Road,Apt 1912
7,Stokes-Harvey,mmccory6@sakura.ne.jp,713-294-0976,49595 Old Shore Park,7th Floor
8,"O'Conner, Sanford and Turcotte",ywinterson7@sogou.com,278-823-3319,6 Sunbrook Trail,16th Floor
9,"Leannon, Parisian and Conn",eambrosoni8@qq.com,413-798-9517,348 Blackbird Drive,Room 177
10,"Heller, Effertz and Friesen",pcourt9@ezinearticles.com,241-646-8581,748 Del Sol Road,PO Box 87764
11,Blick Group,rreiska@wix.com,574-858-7105,1 Melby Place,Suite 24
12,Hermiston-Doyle,cfalkousb@addtoany.com,194-257-0378,299 Melody Park,Apt 618
13,Bernhard and Sons,jsoppittc@e-recht24.de,233-976-9657,040 Arizona Point,Suite 77
14,Mitchell-Borer,swankeld@imgur.com,958-738-9672,5637 Upham Center,18th Floor
15,"Hand, Denesik and Paucek",lgirardonie@cdbaby.com,362-661-1812,764 Towne Road,Apt 1267
16,Hahn-Douglas,vhailwoodf@themeforest.net,911-953-8673,914 Sutteridge Center,Room 1988
17,Schinner LLC,nfewlassg@trellian.com,185-707-1126,7 Transport Street,Room 827
18,Volkman-Murray,jewenh@stumbleupon.com,873-144-9127,4 Delladonna Road,PO Box 37886
19,Aufderhar and Sons,aroothami@baidu.com,981-356-2546,40 Park Meadow Hill,Apt 1968
20,Hansen LLC,bloveringj@diigo.com,809-866-8732,1 Maple Street,Suite 15
21,Boehm-Daugherty,sullrichk@aol.com,372-467-5655,398 Bashford Crossing,Suite 14
22,Medhurst Group,alehonl@google.com,221-749-2255,09 Prairie Rose Pass,Suite 80
23,Romaguera-Turner,cortigerm@istockphoto.com,278-187-3642,6606 Ridgeway Street,Room 721
24,Gibson-Vandervort,echildersn@dailymail.co.uk,249-682-6141,31 Bunting Lane,Room 973
25,Keeling-Bogisich,joxtabyo@craigslist.org,898-134-8669,925 Thierer Drive,PO Box 11334
26,Orn Inc,cabelwhitep@xing.com,607-478-7687,3 Summerview Alley,PO Box 56924
27,Satterfield Group,mpierseq@netvibes.com,315-623-2915,4458 Lyons Court,Suite 59
28,Rodriguez-Wiegand,dbramhamr@marriott.com,719-436-8960,68050 Sullivan Pass,10th Floor
29,Franecki-Brown,gespinals@ycombinator.com,707-877-4470,41 Thierer Place,7th Floor
30,"Kreiger, Lindgren and Kling",apalatinot@businessinsider.com,516-625-0003,6 Golden Leaf Point,Suite 76
31,Hessel-Armstrong,smccrillisu@jimdo.com,651-288-9197,25719 Porter Road,1st Floor
32,MacGyver LLC,wmessinghamv@earthlink.net,229-803-6782,41 Starling Pass,Suite 93
33,"Bergstrom, Kuphal and Bartoletti",rbakesefw@domainmarket.com,992-708-4567,197 Melody Junction,9th Floor
34,Mills Group,dorhtmannx@google.ca,256-595-5487,14 Marcy Trail,PO Box 52338
35,Marks-Simonis,gbeey@intel.com,853-533-0871,5888 International Pass,Suite 49
36,Zulauf-Koch,fmoncktonz@4shared.com,530-773-4267,71840 Lindbergh Avenue,PO Box 36490
37,"Tremblay, Jacobs and Roberts",ltrahmel10@home.pl,338-584-2148,854 Daystar Road,Room 1833
38,Barton-Abernathy,ngaspero11@wsj.com,925-609-8717,6 Green Ridge Terrace,Room 1162
39,Denesik-Grimes,mreichhardt12@sciencedaily.com,373-741-0196,33 Bowman Court,PO Box 50608
40,Kub and Sons,dmartineau13@facebook.com,878-868-0835,6 Hermina Park,Suite 36
41,Boyer-Kemmer,jloisi14@tiny.cc,663-558-4146,79 Laurel Road,Apt 20
42,"Goldner, Littel and Gleason",imaccroary15@phoca.cz,459-247-4887,561 Northridge Parkway,PO Box 82081
43,Wolff-Torp,bkenwood16@unblog.fr,784-604-2317,782 Utah Junction,5th Floor
44,Pfeffer-Frami,mwyldish17@51.la,581-756-8184,24784 Bay Road,3rd Floor
45,"Ullrich, Olson and Renner",rlillecrop18@example.com,430-458-3072,0553 Logan Drive,Suite 90
46,"Kulas, Boyle and Ryan",pjekyll19@constantcontact.com,814-105-0625,0 Debs Place,PO Box 12479
47,Runolfsdottir-Schamberger,tochterlony1a@telegraph.co.uk,299-355-9549,8 Muir Center,Suite 90
48,"Koelpin, Feil and Renner",bcrouse1b@narod.ru,738-578-2800,3 American Center,Apt 1203
49,Lubowitz Inc,jhulke1c@acquirethisname.com,952-401-4802,38702 Knutson Way,8th Floor
50,Gibson-Nicolas,ishearman1d@weather.com,586-172-4719,6759 Shasta Park,1st Floor
51,"Zieme, Romaguera and Macejkovic",tcoffelt1e@meetup.com,495-528-2233,7560 Melby Park,Room 649
52,Predovic-Romaguera,egingle1f@aboutads.info,240-938-7011,3735 Prentice Junction,5th Floor
53,Miller Inc,lcricket1g@meetup.com,460-673-0721,8 Veith Crossing,Suite 24
54,Hamill-Yundt,hvedyasov1h@unc.edu,946-425-4079,27 Veith Drive,PO Box 22374
55,"Cremin, Corkery and Barrows",dhaydn1i@google.ru,915-292-5393,930 Heffernan Trail,Suite 22
56,Konopelski Inc,ccodd1j@biblegateway.com,662-728-3057,388 Mayer Street,9th Floor
57,Hoeger LLC,rraubheim1k@pinterest.com,602-225-7331,97519 Iowa Junction,Apt 729
58,Hermann Inc,drowbrey1l@ted.com,252-649-9891,11901 Hovde Drive,Room 611
59,Dicki Group,eegdell1m@businesswire.com,711-427-5874,2521 Scott Center,PO Box 73277
60,Dare-Jacobs,agaffney1n@dagondesign.com,240-569-9262,76182 Miller Court,Apt 141
61,Spinka-Rodriguez,acalcut1o@go.com,225-643-7777,37 Tomscot Place,PO Box 86516
62,Rosenbaum and Sons,dcrix1p@state.tx.us,499-997-7576,4 Gerald Plaza,18th Floor
63,"Haag, Nolan and Kautzer",dspeight1q@prlog.org,263-683-4559,4 Center Center,Suite 34
64,"Schulist, Bradtke and Blick",dholttom1r@live.com,492-900-7834,0 Fordem Alley,15th Floor
65,Friesen-Stiedemann,mberzon1s@bloomberg.com,823-575-6274,3 Tennessee Lane,Apt 731
66,"Langworth, Friesen and Ratke",ahitscher1t@github.io,408-366-5175,2325 Cardinal Hill,Apt 1338
67,O'Hara Group,srawles1u@jiathis.com,278-206-1774,803 Oriole Junction,Apt 107
68,"Bins, McClure and Bernhard",svigneron1v@dropbox.com,336-527-1034,68 Garrison Pass,Suite 48
69,Harber-Skiles,dgrioli1w@mashable.com,451-137-8291,8 Moland Pass,Room 1378
70,Williamson LLC,arubi1x@blinklist.com,392-844-5252,39164 La Follette Parkway,Room 1302
71,Nienow-VonRueden,wducket1y@rambler.ru,939-314-9491,72250 Lindbergh Way,PO Box 34817
72,"Little, Cummings and Rath",osimchenko1z@tinypic.com,344-605-5521,1790 Hansons Junction,13th Floor
73,"Mueller, Swaniawski and Spinka",fpeagram20@wp.com,991-992-7595,2 Corscot Junction,PO Box 45207
74,"Upton, Heaney and Sanford",hbraunstein21@theguardian.com,669-740-9634,90809 Oriole Drive,9th Floor
75,"Stoltenberg, Leannon and Abshire",spotebury22@sogou.com,494-278-3205,4139 Farragut Plaza,19th Floor
76,Waelchi and Sons,dfilippyev23@biglobe.ne.jp,672-935-3322,6 Bultman Trail,Room 1303
77,Glover Inc,fjory24@ucsd.edu,562-961-4717,37060 Dawn Circle,Suite 15
78,"VonRueden, Veum and Anderson",bsherebrook25@yahoo.com,860-914-3453,7156 Sullivan Drive,Room 1015
79,Sawayn-Murazik,jpashenkov26@ehow.com,853-209-5303,6 4th Circle,PO Box 29198
80,"Turcotte, Reichel and Dooley",amonks27@gizmodo.com,981-275-6424,478 Mifflin Plaza,Room 1463
81,Rogahn LLC,scowp28@joomla.org,365-109-6258,0398 Hauk Street,Suite 94
82,"Runte, Dickinson and Kertzmann",msimms29@sogou.com,249-958-7085,3 Summerview Point,PO Box 22692
83,Mertz-Jacobi,nhardypiggin2a@parallels.com,946-692-5097,0 Sloan Crossing,Room 1188
84,Langosh Inc,cheazel2b@sogou.com,963-770-2384,57 Hoffman Point,PO Box 22230
85,"Jacobs, Armstrong and Blick",aknutsen2c@tiny.cc,685-394-9389,557 Heffernan Place,Room 995
86,"Bailey, Beatty and Schmitt",hmacascaidh2d@prlog.org,853-154-3360,7 Becker Point,Apt 1761
87,Abshire LLC,lkirimaa2e@seesaa.net,336-946-5907,337 Hoepker Point,PO Box 30052
88,"Schoen, Kuhic and Watsica",lfairlam2f@google.co.uk,766-969-8496,9 Nevada Street,19th Floor
89,Ziemann Inc,bneighbour2g@drupal.org,782-484-8133,8 Village Trail,Room 730
90,"Legros, Boyer and Beer",rdellatorre2h@wiley.com,463-733-7292,136 Bonner Center,19th Floor
91,Parker-Franecki,acristobal2i@nytimes.com,257-891-2753,8287 Meadow Valley Court,Suite 63
92,"Lynch, Flatley and Stanton",iblair2j@icio.us,700-994-2422,579 Summerview Crossing,Apt 508
93,Effertz and Sons,ihague2k@bloglines.com,977-945-3919,4425 North Terrace,Suite 10
94,"Zemlak, Marquardt and Greenfelder",nhearthfield2l@dot.gov,597-626-6603,0 Declaration Plaza,PO Box 22607
95,Spencer Group,eharesign2m@symantec.com,538-798-8438,025 Crescent Oaks Junction,PO Box 70274
96,Luettgen-Keebler,gstudman2n@cafepress.com,472-692-7684,107 Armistice Alley,Apt 694
97,Armstrong-Ankunding,htwiddle2o@smh.com.au,324-722-0675,08195 Hallows Drive,Apt 873
98,Romaguera-Kris,jseaton2p@t-online.de,423-440-9328,734 Havey Trail,Room 120
99,Batz Group,dsmellie2q@ow.ly,753-822-2802,62 Cody Parkway,PO Box 93838
100,"Murray, Gerhold and Leffler",lramsey2r@about.me,105-190-6097,6124 8th Circle,1st Floor
101,"Kuhlman, Upton and Ritchie",sguinnane2s@dell.com,637-401-7197,8838 Onsgard Avenue,Room 913
102,Brekke-Breitenberg,tskocroft2t@homestead.com,312-455-4505,403 Evergreen Drive,Suite 51
103,"Yundt, Flatley and Stoltenberg",rduthie2u@google.nl,859-866-8809,5 Summerview Way,Room 783
104,Towne-Nienow,cgunn2v@godaddy.com,367-759-7191,2 Mayfield Street,16th Floor
105,Willms LLC,ikellen2w@webeden.co.uk,277-851-1032,0 Miller Drive,Suite 40
106,Okuneva Group,dainslie2x@jigsy.com,755-391-7003,49 Grasskamp Court,Room 1211
107,"O'Kon, Jerde and Kutch",rwhitrod2y@timesonline.co.uk,494-977-9552,9 Rockefeller Drive,Room 614
108,Metz and Sons,afolan2z@squarespace.com,848-216-0183,63048 Gateway Way,Apt 527
109,Reynolds LLC,alefeuvre30@salon.com,236-649-4259,7458 Packers Place,PO Box 39727
110,Jakubowski Group,lshortt31@google.ca,372-523-7519,64729 Stuart Parkway,Room 1747
111,Torp-Tillman,cfibbens32@spotify.com,403-640-7668,74415 Fallview Junction,PO Box 8175
112,Berge-Funk,mglancey33@tinyurl.com,354-602-9219,9601 School Trail,3rd Floor
113,Graham-Walker,haicheson34@buzzfeed.com,626-883-8729,4122 Green Ridge Way,Suite 98
114,Blanda Inc,anorwood35@booking.com,414-697-1972,48 Elmside Parkway,Apt 427
115,"Emard, Kilback and Crooks",hscotting36@about.me,939-130-0934,5844 Carey Crossing,Apt 94
116,"Daugherty, West and Welch",kbaseggio37@phpbb.com,226-749-5007,84 Hoard Road,13th Floor
117,Dickinson and Sons,thoonahan38@cdc.gov,424-418-5972,4961 Lyons Place,Room 1085
118,"Homenick, Bahringer and Donnelly",jrhoddie39@sohu.com,953-329-2559,42737 Katie Alley,Suite 95
119,Lowe LLC,maskwith3a@dion.ne.jp,769-602-8816,76286 Dayton Hill,Room 1078
120,"Williamson, Wintheiser and Lehner",gkleinber3b@miitbeian.gov.cn,228-559-1279,5 Walton Junction,17th Floor
121,Corwin Group,jsim3c@archive.org,866-816-4965,1788 Sommers Way,Apt 362
122,"Kiehn, Turcotte and Langworth",jattwooll3d@ifeng.com,257-959-6786,40285 Daystar Trail,12th Floor
123,Cremin LLC,hlusk3e@biglobe.ne.jp,625-312-2068,00081 Onsgard Alley,Room 976
124,Glover Inc,jbelch3f@webnode.com,175-490-2538,7235 Ronald Regan Terrace,8th Floor
125,Bradtke-Cassin,lpumphreys3g@apple.com,545-161-0338,25614 Fairfield Alley,PO Box 48712
126,Denesik-Homenick,edollard3h@fotki.com,210-153-0807,15839 Barnett Avenue,Room 1678
127,Kuhic LLC,gstevens3i@reference.com,742-318-2600,20885 Eagle Crest Point,Room 958
128,"Pagac, Howell and Tromp",hstonall3j@unicef.org,931-380-9931,5806 Chive Drive,3rd Floor
129,Dibbert-Willms,mlyffe3k@hud.gov,213-761-4920,83 Vera Avenue,14th Floor
130,Treutel Group,shardiman3l@w3.org,554-525-8427,5 Arkansas Place,PO Box 42700
131,Konopelski and Sons,iskechley3m@digg.com,316-164-0315,0 Summit Circle,7th Floor
132,Marquardt Inc,bbilliard3n@nsw.gov.au,645-558-8471,6 Myrtle Street,Apt 1093
133,Daugherty-Yundt,nniesegen3o@php.net,347-658-2206,36 Lakewood Gardens Pass,Suite 31
134,"Wuckert, Dach and Hickle",dmaccrosson3p@blogger.com,211-869-5102,2 Kingsford Place,13th Floor
135,"VonRueden, Zulauf and Hickle",nsill3q@feedburner.com,862-581-8923,335 Bultman Court,Apt 1757
136,"Lockman, Kozey and Block",dhandyside3r@ocn.ne.jp,545-425-9036,36 West Avenue,Apt 475
137,"Windler, Ortiz and Hintz",dpeagrim3s@china.com.cn,353-388-5315,088 Memorial Hill,Apt 1078
138,Balistreri-Feil,jpoppleston3t@ycombinator.com,426-538-2437,57074 Burning Wood Parkway,6th Floor
139,Kuvalis-Rowe,jpinn3u@1und1.de,576-913-1625,59 Riverside Hill,PO Box 61958
140,"Koss, Orn and Turner",hsanders3v@xing.com,377-278-5918,32 Warner Park,Room 844
141,Medhurst Group,bwaite3w@princeton.edu,816-536-2564,7 Lyons Center,Suite 16
142,Swaniawski Inc,crabbatts3x@dropbox.com,106-166-7284,0250 Sachtjen Road,11th Floor
143,"Carter, Macejkovic and Lehner",ashere3y@google.fr,872-523-4815,35 Vidon Road,Suite 83
144,Cartwright-Stroman,acracoe3z@cnn.com,400-587-0914,574 Butterfield Plaza,Suite 22
145,Swaniawski-Wiegand,qcamelin40@apple.com,128-809-1490,54 Atwood Road,Room 1724
146,Lesch-Franecki,rhowling41@ucoz.com,293-760-1078,488 Gina Junction,Suite 20
147,Pfeffer-Schinner,vbrumby42@businessweek.com,164-774-8734,5358 Waywood Alley,Suite 75
148,Doyle-Zulauf,lshory43@naver.com,111-465-4020,56 Annamark Junction,Apt 1436
149,"Huels, Oberbrunner and Wyman",ckopp44@netlog.com,191-429-0036,68 Londonderry Trail,PO Box 21382
150,"Adams, Jakubowski and Blanda",rkivlehan45@ucoz.com,432-695-8484,569 Swallow Lane,Apt 132
151,"Cassin, Jones and D'Amore",hsondland46@merriam-webster.com,650-355-4935,0490 Eastwood Hill,PO Box 7579
152,Quigley-Carter,gtinniswood47@cbsnews.com,404-613-3293,4267 Pond Alley,Apt 710
153,Howell Group,gsaladine48@spotify.com,262-374-3510,60 Summerview Alley,Suite 56
154,West-Kunze,gcrocket49@spotify.com,696-483-9375,3 Magdeline Point,PO Box 66917
155,"Willms, Grady and Hermann",gchatainier4a@yellowpages.com,159-963-6010,81402 Corscot Way,Room 233
156,Jacobs-Kunde,ctingcomb4b@ed.gov,900-185-5150,188 Corscot Trail,Room 1660
157,"Purdy, Langworth and Macejkovic",nwey4c@amazon.co.jp,574-917-7349,88 Merchant Street,Suite 68
158,"Morissette, Ratke and Upton",ekerfut4d@stanford.edu,102-512-0361,6699 Dovetail Avenue,Suite 4
159,Smith LLC,mbiggs4e@behance.net,737-966-1720,133 Myrtle Alley,Room 1476
160,Muller LLC,tcoulton4f@nasa.gov,182-922-9761,7547 Westport Junction,17th Floor
161,Bailey and Sons,aspringtorp4g@guardian.co.uk,114-651-2942,99 Harper Lane,Apt 1490
162,"Monahan, Larson and Kihn",dfortey4h@freewebs.com,763-832-4910,98081 Jana Road,Apt 698
163,Doyle Group,ivarren4i@ucoz.com,280-153-0124,410 Spenser Road,PO Box 88436
164,Gleichner-Lueilwitz,callbut4j@xing.com,377-408-5314,59848 Rigney Drive,Room 891
165,Mills Inc,calderwick4k@ca.gov,655-652-9117,312 Michigan Lane,Apt 1751
166,Dickens and Sons,mverry4l@360.cn,425-891-2379,4 Hanson Drive,Room 1258
167,Witting-Smith,lhizir4m@vk.com,385-721-8907,2 Upham Pass,Suite 37
168,"Hagenes, Balistreri and Schinner",ariccioppo4n@phpbb.com,936-651-1753,9595 Ronald Regan Terrace,Suite 58
169,Daniel-Treutel,malliker4o@infoseek.co.jp,372-675-7043,63854 Ohio Junction,Apt 1939
170,Hoeger-Bins,ajones4p@angelfire.com,850-395-7774,7 Park Meadow Lane,20th Floor
171,Murazik Group,pmacconneely4q@yahoo.com,906-283-4849,96 Harbort Trail,PO Box 73886
172,Wisozk-Jacobi,acrosier4r@yellowpages.com,853-348-6105,94 Melody Junction,13th Floor
173,Wolff Group,iziemens4s@hatena.ne.jp,832-904-5923,4457 6th Plaza,Apt 1548
174,"Watsica, Abbott and Moen",abutts4t@people.com.cn,207-527-8269,3927 Eagan Street,10th Floor
175,"Crona, Nader and Kunze",lshinefield4u@blogspot.com,844-121-4827,88599 Morningstar Way,Apt 1179
176,Cormier-O'Kon,ljan4v@gmpg.org,172-918-6364,309 Pepper Wood Crossing,PO Box 40566
177,"Muller, Weissnat and Schmidt",cdrinan4w@latimes.com,505-377-0129,1 Larry Point,Room 1800
178,"O'Keefe, Kemmer and Wolff",fthaxter4x@nymag.com,993-275-9402,3061 International Trail,PO Box 92081
179,Feil-Hoppe,fkingsman4y@indiegogo.com,237-265-9412,49 Springs Parkway,Apt 932
180,Corwin-Hackett,bdabell4z@mit.edu,809-334-8779,249 Corben Drive,Apt 1979
181,Frami-Fritsch,joshiel50@w3.org,858-827-0832,5834 Twin Pines Terrace,4th Floor
182,Miller-McDermott,dculvey51@meetup.com,615-260-3151,1076 Johnson Court,19th Floor
183,"O'Reilly, Hammes and Bergnaum",alotwich52@theguardian.com,847-457-2702,1155 Holmberg Place,Room 1235
184,Schaefer-Auer,kfellini53@dedecms.com,861-942-9842,5783 Butterfield Park,PO Box 20732
185,"Zemlak, Kling and Lynch",liacivelli54@drupal.org,422-799-7370,7854 South Park,Room 373
186,Satterfield-O'Keefe,amackenny55@rambler.ru,926-319-5699,013 Armistice Parkway,PO Box 66081
187,Schaden-Tillman,mpanyer56@telegraph.co.uk,538-629-5340,77 Union Circle,2nd Floor
188,Fritsch-Halvorson,gneasam57@liveinternet.ru,996-974-5474,50877 Anzinger Center,Room 188
189,Shanahan LLC,akrale58@over-blog.com,592-957-8779,19 Hudson Lane,16th Floor
190,Bradtke-West,mmarrable59@mediafire.com,265-154-1748,333 John Wall Circle,PO Box 24424
191,Cassin-Stark,jlidgley5a@moonfruit.com,268-100-7669,58990 Old Gate Junction,14th Floor
192,Koch-Gerlach,ghirschmann5b@php.net,842-874-9741,303 6th Center,3rd Floor
193,Kiehn-Parisian,gizzatt5c@sohu.com,719-619-0209,86695 Golf View Park,Room 1324
194,Runolfsdottir-Bruen,awinckles5d@symantec.com,550-652-7111,7528 Old Gate Point,Room 1399
195,"Sauer, Gibson and Balistreri",hpetrakov5e@bandcamp.com,408-893-2515,5930 Mitchell Center,Suite 37
196,Ritchie Group,ttimny5f@scientificamerican.com,146-931-3123,7 Charing Cross Way,6th Floor
197,Treutel-Zulauf,lleverage5g@house.gov,686-588-9441,17018 Erie Center,PO Box 93051
198,Mohr and Sons,doutridge5h@icio.us,269-496-1257,1 Westridge Crossing,Room 1345
199,"Prohaska, Lang and Stoltenberg",cburberry5i@myspace.com,738-954-9102,181 Artisan Road,Suite 83
200,Crooks Inc,ilamplough5j@addtoany.com,861-490-3818,24217 Stone Corner Parkway,Apt 1127
201,"Larson, Steuber and Olson",achater5k@va.gov,508-432-1016,11 Bultman Place,Apt 1029
202,Nolan-Collier,iorlton5l@seesaa.net,479-233-8408,26669 Fairfield Terrace,PO Box 74187
203,"Hagenes, Rippin and Considine",zasser5m@ucsd.edu,439-911-0440,0457 Ryan Hill,Apt 1749
204,"Boyer, Berge and Hegmann",sepdell5n@about.com,707-912-9754,640 Elka Point,PO Box 81036
205,"Leuschke, Carroll and Sauer",kgatch5o@ocn.ne.jp,146-558-6698,9 Monument Place,Room 1541
206,Beatty Inc,lfilpo5p@biblegateway.com,257-607-7387,427 Westerfield Trail,Room 35
207,"Batz, Torp and Quitzon",tbraidford5q@un.org,711-500-3308,55068 Waywood Parkway,Room 876
208,Lang and Sons,domarkey5r@deviantart.com,925-601-9368,4 Hoffman Point,15th Floor
209,Labadie LLC,ablagbrough5s@imageshack.us,175-333-2194,057 Harbort Avenue,Room 1711
210,Williamson and Sons,cberney5t@bing.com,134-754-4239,398 Kings Crossing,PO Box 13836
211,Windler-Shanahan,breedyhough5u@bbc.co.uk,863-345-6070,4661 Sloan Court,PO Box 55203
212,Rodriguez-Wilderman,dharrop5v@godaddy.com,395-754-4711,6 Donald Place,Apt 1665
213,Bauch LLC,nnewcome5w@si.edu,198-563-0556,4360 Northridge Court,Suite 26
214,"Kautzer, Goldner and Rice",fcarrett5x@liveinternet.ru,283-996-4053,7 Mayer Crossing,Room 1162
215,"Jacobson, Kemmer and Zboncak",bdrydale5y@jalbum.net,238-336-1359,69822 Coleman Avenue,PO Box 67935
216,Walter and Sons,rschuler5z@csmonitor.com,604-571-4409,64 Bowman Trail,Room 500
217,Schulist Group,ckerner60@hexun.com,108-992-1125,22 Weeping Birch Court,Room 944
218,Abbott Inc,ksarfatti61@noaa.gov,143-609-2659,4809 Heath Junction,PO Box 81670
219,Rohan-Jacobi,ptonkin62@unicef.org,150-929-4802,6 Almo Plaza,Apt 485
220,Batz LLC,rdupre63@mediafire.com,430-668-4691,990 Sheridan Hill,8th Floor
221,Lindgren-Satterfield,fibotson64@sfgate.com,372-745-7484,208 Ruskin Alley,Room 924
222,Sanford Group,cmattys65@tiny.cc,667-443-1045,202 Brickson Park Parkway,PO Box 43377
223,Sanford-Crona,lmunday66@blogger.com,517-355-3671,82378 Service Park,PO Box 87931
224,Rempel Inc,mswetmore67@aboutads.info,573-692-3418,5 Bunker Hill Alley,Suite 87
225,Heaney Group,kjennemann68@ihg.com,351-244-8418,84 Sauthoff Park,PO Box 65251
226,Zemlak LLC,pgodby69@ning.com,907-125-3205,27 Sullivan Plaza,Suite 11
227,"Carter, Stroman and Rippin",mblomfield6a@bbb.org,461-293-3493,225 Mandrake Way,Room 931
228,"Torp, Balistreri and Dickinson",ajealous6b@blinklist.com,166-408-0635,8885 Golden Leaf Park,Suite 77
229,Haag Inc,mlafrentz6c@edublogs.org,691-608-2793,65 Meadow Ridge Crossing,Room 721
230,"Waelchi, Heaney and Hoeger",bsherry6d@google.ca,842-506-1346,1465 Graedel Center,7th Floor
231,Jacobs LLC,ppeterson6e@mit.edu,624-469-2246,6 Oriole Place,PO Box 93145
232,"Stracke, Brekke and Kuvalis",jpearcey6f@ebay.com,519-702-4195,1604 Becker Alley,Suite 32
233,Robel LLC,aflisher6g@house.gov,781-103-3897,24595 Dahle Alley,8th Floor
234,Schultz-Von,pizen6h@youtu.be,629-152-3619,60469 Merry Center,PO Box 22683
235,Goodwin-McGlynn,sskirvin6i@auda.org.au,801-861-5108,56127 Transport Hill,Suite 56
236,Murphy LLC,clefranc6j@xinhuanet.com,662-919-8918,2 Delaware Hill,PO Box 25967
237,Howell-Mertz,eferrettino6k@mlb.com,705-449-2068,43 Towne Lane,Room 1017
238,Hoeger-Lemke,hmarfell6l@shop-pro.jp,897-500-5325,91866 Main Way,14th Floor
239,Lindgren LLC,onoddles6m@berkeley.edu,764-407-9588,7 Hudson Point,Apt 768
240,Klocko and Sons,amcauliffe6n@friendfeed.com,605-677-9095,6 Melody Lane,Suite 95
241,Reinger Inc,tveracruysse6o@amazon.co.uk,446-287-7283,2 Old Gate Crossing,Suite 20
242,"Shanahan, Gottlieb and Nikolaus",jwardlow6p@ifeng.com,582-784-2175,5661 Dryden Crossing,Apt 1179
243,"Wintheiser, Wilkinson and Treutel",tbenam6q@dyndns.org,529-310-0654,410 Kennedy Road,5th Floor
244,"Klein, Cremin and Schultz",gdilley6r@ft.com,868-945-2581,998 Sloan Court,Room 1461
245,Ledner and Sons,cbroadwood6s@360.cn,445-350-6240,43 Michigan Avenue,Suite 80
246,Wiza and Sons,lwalaron6t@cnbc.com,734-582-1741,70117 David Avenue,8th Floor
247,"Kuhlman, Oberbrunner and Cummings",jtatters6u@thetimes.co.uk,685-900-4771,99361 Old Gate Point,20th Floor
248,"Christiansen, Stehr and Lebsack",galton6v@marketwatch.com,591-498-1374,5 Ohio Trail,5th Floor
249,Cartwright-Hermiston,hvanderstraaten6w@chron.com,977-483-1861,7 7th Way,PO Box 35983
250,"Block, Schmidt and Morissette",cgrimsley6x@hhs.gov,519-488-0474,00561 Laurel Junction,20th Floor
251,"Bartoletti, Rowe and Schroeder",sfurlonge6y@toplist.cz,674-423-6461,23354 Warrior Terrace,19th Floor
252,"Berge, Green and Mosciski",rhannent6z@uiuc.edu,257-611-7158,1177 Dahle Court,Room 1320
253,Rath-Predovic,rgarrold70@sakura.ne.jp,715-516-8195,142 Hovde Way,Room 1471
254,"Sanford, Gibson and Ruecker",ffitzsimmons71@spiegel.de,315-318-5471,492 Londonderry Point,Suite 53
255,Koelpin-Ledner,gtuffrey72@msu.edu,147-411-1596,25 Lakewood Park,Room 854
256,Botsford-Bartoletti,cottosen73@pcworld.com,336-160-6708,105 Mcbride Circle,8th Floor
257,McLaughlin-Krajcik,dgregor74@nhs.uk,784-300-1741,7 Butterfield Avenue,20th Floor
258,"Nitzsche, Predovic and Wisozk",dwhotton75@wikimedia.org,255-687-8523,3247 Bluejay Point,16th Floor
259,Jacobi LLC,brudyard76@livejournal.com,951-116-3615,479 Sycamore Crossing,PO Box 60938
260,Dach LLC,aheliet77@virginia.edu,856-737-8389,91898 Starling Court,5th Floor
261,Turcotte-Little,emanchester78@blinklist.com,810-295-8636,87142 Eagle Crest Avenue,PO Box 73854
262,Kris-Gorczany,lstanyer79@squidoo.com,811-368-0230,9 Paget Street,Apt 188
263,Wehner-Crona,mmcshea7a@wisc.edu,817-679-4841,4559 Melby Terrace,PO Box 59636
264,"DuBuque, Larson and Hane",tlosano7b@ycombinator.com,898-478-2352,7414 Birchwood Terrace,PO Box 8516
265,Hermann Inc,ygrimwood7c@google.com,514-373-5724,49 Union Center,19th Floor
266,Labadie-Shanahan,cstollmeier7d@hc360.com,213-972-0097,0 Dovetail Parkway,Apt 563
267,Rolfson Inc,cseed7e@nba.com,796-188-1043,9574 Ridge Oak Lane,Suite 63
268,Walter and Sons,bkibard7f@yahoo.com,688-514-8531,3939 Fuller Trail,Room 974
269,Quitzon-Vandervort,cedbrooke7g@ameblo.jp,313-872-5873,476 Chinook Pass,PO Box 13246
270,Schumm-Cormier,fburniston7h@nydailynews.com,453-175-3066,17 Schurz Court,Suite 32
271,Willms Group,mbosdet7i@addtoany.com,756-555-6201,99 Badeau Lane,12th Floor
272,Larkin Group,bfawcett7j@de.vu,394-519-4571,7663 Park Meadow Drive,12th Floor
273,Keeling-Turner,adorcey7k@usgs.gov,403-782-3876,70086 Melvin Way,Room 1558
274,Brekke and Sons,jmoden7l@bigcartel.com,798-985-0819,8292 Hansons Trail,Suite 12
275,Mayert-Hoppe,bcabrera7m@techcrunch.com,139-271-7584,56 Village Drive,PO Box 82879
276,"Harris, Bins and Turner",fcheales7n@flickr.com,747-527-0840,56861 Loftsgordon Avenue,Apt 986
277,Funk and Sons,mdwelly7o@hp.com,736-857-7750,8197 Briar Crest Road,Suite 50
278,"Orn, Volkman and Schultz",jgherardelli7p@about.com,601-533-5501,9 Merchant Avenue,Suite 38
279,Lubowitz Group,worum7q@wsj.com,592-830-8791,9 Spaight Parkway,16th Floor
280,Collins-Walter,lvarty7r@omniture.com,544-321-0899,617 Drewry Court,Apt 772
281,Wunsch Inc,mvlahos7s@quantcast.com,116-644-5153,9 Mccormick Center,Suite 24
282,Quigley Inc,pmulqueeny7t@desdev.cn,200-511-0966,8758 Corben Park,Apt 740
283,Rempel LLC,cwood7u@privacy.gov.au,708-131-5509,14 Buell Court,Suite 51
284,Nader-Adams,ilownsbrough7v@flickr.com,671-452-2037,0 Westridge Terrace,Suite 100
285,"Lueilwitz, Bauch and Hermann",jdedei7w@psu.edu,235-850-2193,93625 Hauk Road,Apt 1278
286,Doyle LLC,cdiego7x@photobucket.com,650-714-4535,03492 Hoepker Trail,PO Box 82736
287,Kiehn and Sons,mwannes7y@alexa.com,909-509-1345,2 Eastlawn Junction,Suite 17
288,Jast LLC,pmasden7z@cornell.edu,887-284-7275,965 Mayer Drive,Suite 67
289,Krajcik-Kunze,cmartt80@nsw.gov.au,502-262-1619,32683 Bartillon Center,PO Box 37514
290,"Schimmel, Franecki and Swift",bcolisbe81@kickstarter.com,965-782-2651,34 Trailsway Plaza,PO Box 95346
291,Quigley LLC,ddonett82@nifty.com,664-302-4746,9 Glacier Hill Lane,1st Floor
292,Little-Borer,dbrock83@whitehouse.gov,592-461-9003,8870 Lillian Lane,Suite 16
293,Robel Inc,mbrunker84@pagesperso-orange.fr,297-757-7241,90 Parkside Crossing,Apt 1982
294,Braun Group,mcarver85@gmpg.org,228-658-8085,83800 Mosinee Way,Room 770
295,Ankunding and Sons,hpadginton86@wix.com,258-982-6904,145 Grover Street,18th Floor
296,"Hilll, Mann and Becker",alambourn87@wp.com,760-245-1264,5569 Glacier Hill Point,PO Box 51973
297,Russel-Bergstrom,gpolon88@zdnet.com,879-973-1421,8251 Kinsman Hill,Room 1374
298,Volkman-Hills,jcapon89@posterous.com,363-737-8585,67 Lighthouse Bay Avenue,Suite 61
299,Huel-Ryan,vdelamar8a@wordpress.org,351-588-2806,31399 Oak Place,Suite 54
300,McGlynn Group,jgodilington8b@homestead.com,196-215-6684,39601 Crowley Point,19th Floor
301,Parisian-Boyle,roakley8c@cyberchimps.com,324-501-5240,879 8th Court,17th Floor
302,"Bernier, Smitham and Vandervort",cplum8d@soundcloud.com,378-278-0350,275 Mosinee Plaza,Apt 446
303,Rowe LLC,ndrogan8e@about.com,446-101-3938,162 Lakeland Avenue,Room 1091
304,"Weimann, Schuster and Ratke",cklos8f@squarespace.com,687-819-4222,8 Bonner Crossing,15th Floor
305,Fritsch Inc,wskeat8g@patch.com,930-893-5118,0 Maple Lane,Apt 126
306,Jacobs Group,klongbottom8h@last.fm,401-616-9397,43386 Dwight Drive,Suite 71
307,Wunsch-Jerde,ccuming8i@about.me,361-437-0555,8509 Hanover Crossing,PO Box 29482
308,Roberts-Thompson,lspurgin8j@edublogs.org,383-877-1553,19 Center Drive,Room 155
309,Harber Group,bmattiacci8k@examiner.com,621-992-3946,21995 Mariners Cove Center,Suite 9
310,Walker Group,giveson8l@indiegogo.com,319-262-4159,26284 Merrick Trail,PO Box 3284
311,Farrell-Ruecker,cmcilvaney8m@clickbank.net,109-665-6406,9444 Banding Court,6th Floor
312,Schroeder-Stehr,tgatrell8n@google.fr,892-974-1494,5 Vahlen Street,15th Floor
313,Nicolas Group,lmcgray8o@amazon.co.jp,416-897-5545,5832 Harbort Circle,PO Box 28622
314,Carter-Hyatt,ngrimsdell8p@alibaba.com,548-544-9871,1313 Buena Vista Crossing,Apt 1985
315,"Hahn, Sanford and Witting",vcottage8q@1und1.de,928-380-6472,98765 Monica Place,PO Box 79211
316,Schiller Group,cstuckey8r@photobucket.com,624-134-8057,5725 Karstens Lane,PO Box 38833
317,Orn LLC,lrahill8s@quantcast.com,952-154-3209,6506 Spaight Parkway,PO Box 44509
318,Streich and Sons,ekitchinghan8t@webs.com,237-982-1721,29 Melvin Alley,Apt 52
319,Collins Group,rteasell8u@xrea.com,323-967-3567,6316 Ilene Lane,PO Box 94546
320,"Runolfsdottir, Douglas and Armstrong",cnelissen8v@scientificamerican.com,320-844-8832,388 Red Cloud Trail,PO Box 435
321,Schulist-Stanton,dgaskoin8w@eventbrite.com,966-816-1146,0 Rutledge Junction,2nd Floor
322,Prosacco and Sons,hreggler8x@un.org,492-603-7395,71 Shasta Place,PO Box 40135
323,"Wintheiser, Lang and Schuppe",pmateu8y@ocn.ne.jp,171-881-8888,1937 Mcguire Lane,Suite 25
324,"Kirlin, Boehm and Halvorson",hebertz8z@hubpages.com,715-334-1577,0909 Muir Pass,Suite 41
325,Cronin Group,plazarus90@hao123.com,212-370-9504,067 Utah Trail,Room 1715
326,"Reichel, Bernhard and Metz",jscotson91@pinterest.com,907-466-8344,62940 Rieder Drive,Apt 515
327,Effertz-Dach,cgravell92@economist.com,398-268-8510,32 Maple Avenue,Suite 46
328,Ziemann-Thiel,jdyerson93@discuz.net,385-812-0234,73 Haas Drive,Apt 1486
329,Olson-Beer,cwilloway94@ebay.co.uk,144-423-5977,04 Logan Way,12th Floor
330,Hackett Inc,bvause95@geocities.jp,345-259-8549,5 Corscot Place,Apt 861
331,"Frami, Donnelly and Roob",bllopis96@hostgator.com,109-429-6925,81 Gina Point,Room 1979
332,Bergstrom-Tremblay,dbartolomieu97@cmu.edu,652-421-9016,9450 Dottie Parkway,10th Floor
333,"Upton, Emard and Marvin",zmacduff98@csmonitor.com,494-980-3776,6 Glacier Hill Center,PO Box 23423
334,Crist Group,imaulin99@surveymonkey.com,210-700-8208,4840 Onsgard Way,Suite 66
335,Crona Inc,akitcat9a@goo.ne.jp,346-373-9175,954 Spenser Park,Room 1943
336,Pagac LLC,mseif9b@google.co.jp,559-283-0264,6 Kings Terrace,Apt 105
337,Dare-Schmeler,mtheobald9c@godaddy.com,652-179-6482,71 Nelson Circle,Suite 39
338,Kub Inc,rcostain9d@scribd.com,578-467-5058,74 Bultman Way,PO Box 10094
339,"Breitenberg, Stokes and Kohler",ebackhurst9e@uiuc.edu,435-540-3651,97 Marcy Plaza,Apt 1427
340,Moen-Buckridge,hrappport9f@kickstarter.com,705-558-3884,18 Bunting Street,Apt 937
341,Wisozk Group,dsquirrel9g@soundcloud.com,517-324-0888,2 Bluejay Crossing,Suite 99
342,"Harris, Schuster and Jaskolski",cmanifould9h@umich.edu,301-412-4546,1 Fisk Plaza,Apt 178
343,Schiller-Aufderhar,earlett9i@gravatar.com,371-499-7985,22683 Killdeer Crossing,Suite 30
344,"Hand, Abbott and Zboncak",hdoyle9j@usnews.com,861-165-2200,61 Vermont Crossing,Suite 26
345,"Leffler, Reynolds and Barrows",jhartopp9k@bloglines.com,899-261-2372,0073 Hanson Park,Suite 16
346,"Pfannerstill, Jacobson and Predovic",esopper9l@sourceforge.net,876-441-0455,36153 Eastlawn Way,Suite 39
347,Goodwin-VonRueden,lbacken9m@edublogs.org,199-300-1467,59776 Boyd Drive,Room 1001
348,Abbott-Waelchi,uprosek9n@wikia.com,411-133-2360,2095 Bartillon Park,Room 412
349,Thiel-Schoen,seric9o@yahoo.com,599-336-6553,9 Pleasure Crossing,Room 1992
350,Kihn-Lang,criddich9p@un.org,208-141-9469,881 Pennsylvania Road,Room 634
351,Olson-Skiles,htitcomb9q@blinklist.com,411-909-9842,860 Drewry Crossing,Suite 67
352,Senger-Ernser,boblein9r@fda.gov,553-929-5309,7905 Kensington Crossing,Suite 72
353,"Price, Corwin and Towne",saleso9s@dedecms.com,717-603-9599,08679 Schlimgen Park,13th Floor
354,"Lueilwitz, Harvey and Pouros",smanna9t@devhub.com,411-371-8884,3155 Pine View Plaza,Apt 1513
355,Willms-Huels,mjoyce9u@un.org,921-131-6783,18792 Glacier Hill Hill,Room 907
356,Kunze Inc,bboult9v@ezinearticles.com,627-544-3486,08906 Larry Center,Apt 1155
357,"Oberbrunner, Wilderman and Hudson",fmckeran9w@4shared.com,197-973-3186,21 Union Circle,Suite 75
358,"Marks, Kihn and Beahan",ecostall9x@constantcontact.com,875-293-5506,51 Duke Alley,PO Box 44848
359,"Okuneva, Stiedemann and Hahn",mfardo9y@nps.gov,711-795-1258,2665 Almo Park,6th Floor
360,"Konopelski, Towne and Champlin",gmitrikhin9z@deliciousdays.com,211-177-4225,97127 Truax Pass,Apt 1490
361,"Schaden, Langworth and Larson",dbenazeta0@buzzfeed.com,901-191-6618,5161 Briar Crest Point,Apt 1158
362,Powlowski-Torp,dstubleya1@deliciousdays.com,729-286-8838,8 Magdeline Alley,Suite 41
363,Collier Group,gdrainsa2@sfgate.com,783-780-9527,0 Stephen Trail,PO Box 57053
364,Jacobs Inc,idarella3@omniture.com,569-464-5555,170 Hanover Hill,Suite 35
365,Lindgren-Gusikowski,sellgooda4@nasa.gov,297-589-7124,068 Heath Lane,Room 1443
366,"Boyer, Fay and Rodriguez",elogiea5@hostgator.com,294-820-4720,2 Mockingbird Park,Suite 1
367,Schultz and Sons,mmanesa6@slate.com,483-218-7900,585 Aberg Street,Suite 91
368,Kautzer Group,lsemereda7@va.gov,172-708-7655,27217 Esch Way,Suite 97
369,Lowe Inc,ktresisea8@youku.com,479-512-5123,512 Jay Place,Suite 1
370,"Cremin, Jacobi and McGlynn",csproula9@salon.com,878-885-2328,25773 Haas Park,Suite 81
371,"Doyle, Ruecker and Beer",rchamberlayneaa@java.com,723-812-5374,8 Miller Crossing,PO Box 52441
372,"Stark, Dietrich and Nikolaus",kokeeffeab@cafepress.com,880-204-3427,60485 Hazelcrest Court,Apt 448
373,"Macejkovic, Donnelly and Wolf",gbradnickac@dailymotion.com,344-164-1509,3870 Maryland Way,Apt 826
374,"Hammes, Schinner and Lynch",bkonzelmannad@ifeng.com,877-400-5586,6110 Kropf Court,PO Box 77130
375,Boyer-Nolan,rgullisae@bandcamp.com,833-264-9544,7 Scoville Road,PO Box 403
376,"Christiansen, Torp and Pollich",cboughenaf@irs.gov,775-875-8505,954 Reindahl Center,15th Floor
377,Haley-Lubowitz,mshackladyag@surveymonkey.com,682-152-6487,58 Lakewood Gardens Junction,Room 858
378,"Bins, Deckow and Bailey",aanthonaah@statcounter.com,581-337-4189,5 Schmedeman Alley,14th Floor
379,Fay-Barton,tespinhoai@blogger.com,471-499-0103,256 2nd Plaza,PO Box 69050
380,"Treutel, Rohan and Johnston",dpaytonaj@about.com,275-636-2964,0272 Springview Hill,9th Floor
381,Leffler-Cartwright,aharesak@csmonitor.com,700-705-8157,253 Mesta Trail,Suite 94
382,Reichel-Brakus,mmusgroveal@tinyurl.com,572-201-1001,32052 Bonner Crossing,15th Floor
383,Leuschke Inc,dprineam@pinterest.com,710-864-5765,859 Nelson Hill,17th Floor
384,"Blick, Rippin and Carroll",jbraseneran@baidu.com,628-624-1946,2458 Huxley Avenue,Apt 704
385,Stanton-Goodwin,cmilhamao@fema.gov,750-630-5131,80393 Elka Park,9th Floor
386,Strosin-Kertzmann,rwhiskerdap@icio.us,888-812-4273,735 High Crossing Point,17th Floor
387,Dickens-Koepp,lpeteriaq@jiathis.com,302-709-9237,7 Amoth Trail,Apt 1271
388,Romaguera Inc,lisaacar@homestead.com,217-611-1201,68943 Vera Alley,Room 793
389,"Bergstrom, Schowalter and Streich",wdellentyas@ft.com,182-527-8159,9565 High Crossing Terrace,PO Box 95813
390,Bosco Inc,aaikenat@devhub.com,150-896-2985,1175 Park Meadow Terrace,PO Box 53001
391,Schmidt-Jakubowski,sjoncicau@chronoengine.com,373-686-5597,2 John Wall Avenue,Apt 874
392,"Mante, Kihn and Abshire",kscarbarrowav@mtv.com,229-921-0243,7 Hagan Point,Apt 1538
393,Cartwright Inc,asowteraw@unc.edu,721-569-3394,3800 Westport Park,Suite 100
394,Grant Group,mbassax@stumbleupon.com,857-466-1084,4 Fulton Place,Room 1575
395,"Gerlach, Kihn and Schultz",jkittlesay@furl.net,201-967-9672,1 Macpherson Junction,1st Floor
396,Fahey-Block,jmcgloinaz@yellowbook.com,898-138-3743,54654 Stone Corner Pass,PO Box 91313
397,"Feil, Harber and Witting",jmcquilliamb0@loc.gov,211-843-2934,66 Hansons Circle,14th Floor
398,"Paucek, Fahey and Botsford",rnuschkeb1@163.com,819-454-0206,0 Fair Oaks Terrace,Room 1802
399,Howe-Conroy,bcardwellb2@tamu.edu,386-636-6706,23 Bellgrove Lane,Apt 511
400,"Hane, Zieme and Reinger",vmacardb3@instagram.com,122-857-0101,1 Dovetail Circle,PO Box 61340
